CCSDS_OMM_VERS = 2.0
CREATION_DATE  = 
ORIGINATOR     = 

OBJECT_NAME    = COSMOS 2550
OBJECT_ID      = 2021-056A
CENTER_NAME    = EARTH
REF_FRAME      = TEME
TIME_SYSTEM    = UTC
MEAN_ELEMENT_THEORY = SGP/SGP4

EPOCH          = 2025-11-02T13:23:47.518368
MEAN_MOTION    = 15.33838831
ECCENTRICITY   = .0008332
INCLINATION    = 67.1430
RA_OF_ASC_NODE = 65.5292
ARG_OF_PERICENTER = 270.3148
MEAN_ANOMALY   = 89.7051

EPHEMERIS_TYPE = 0
CLASSIFICATION_TYPE = U
NORAD_CAT_ID   = 48865
ELEMENT_SET_NO = 999
REV_AT_EPOCH   = 24396
BSTAR          = .20706E-3
MEAN_MOTION_DOT = .6628E-4
MEAN_MOTION_DDOT = 0

CCSDS_OMM_VERS = 2.0
CREATION_DATE  = 
ORIGINATOR     = 

OBJECT_NAME    = CZ-2C R/B
OBJECT_ID      = 2022-058K
CENTER_NAME    = EARTH
REF_FRAME      = TEME
TIME_SYSTEM    = UTC
MEAN_ELEMENT_THEORY = SGP/SGP4

EPOCH          = 2025-11-01T03:30:26.880480
MEAN_MOTION    = 15.45609322
ECCENTRICITY   = .00503411
INCLINATION    = 50.1911
RA_OF_ASC_NODE = 255.2081
ARG_OF_PERICENTER = 25.0159
MEAN_ANOMALY   = 335.3231

EPHEMERIS_TYPE = 0
CLASSIFICATION_TYPE = U
NORAD_CAT_ID   = 52794
ELEMENT_SET_NO = 999
REV_AT_EPOCH   = 19019
BSTAR          = .61713305E-3
MEAN_MOTION_DOT = .31431E-3
MEAN_MOTION_DDOT = 0

CCSDS_OMM_VERS = 2.0
CREATION_DATE  = 
ORIGINATOR     = 

OBJECT_NAME    = GSLV R/B
OBJECT_ID      = 2022-138AN
CENTER_NAME    = EARTH
REF_FRAME      = TEME
TIME_SYSTEM    = UTC
MEAN_ELEMENT_THEORY = SGP/SGP4

EPOCH          = 2025-11-02T10:52:49.497024
MEAN_MOTION    = 14.95793014
ECCENTRICITY   = .001901
INCLINATION    = 87.3857
RA_OF_ASC_NODE = 208.9543
ARG_OF_PERICENTER = 252.5284
MEAN_ANOMALY   = 107.3870

EPHEMERIS_TYPE = 0
CLASSIFICATION_TYPE = U
NORAD_CAT_ID   = 54149
ELEMENT_SET_NO = 999
REV_AT_EPOCH   = 16490
BSTAR          = .27221E-3
MEAN_MOTION_DOT = .3073E-4
MEAN_MOTION_DDOT = 0

CCSDS_OMM_VERS = 2.0
CREATION_DATE  = 
ORIGINATOR     = 

OBJECT_NAME    = XRISM
OBJECT_ID      = 2023-137A
CENTER_NAME    = EARTH
REF_FRAME      = TEME
TIME_SYSTEM    = UTC
MEAN_ELEMENT_THEORY = SGP/SGP4

EPOCH          = 2025-11-01T14:05:22.750368
MEAN_MOTION    = 15.09693165
ECCENTRICITY   = .00082517
INCLINATION    = 31.0026
RA_OF_ASC_NODE = 31.1182
ARG_OF_PERICENTER = 189.8661
MEAN_ANOMALY   = 170.1815

EPHEMERIS_TYPE = 0
CLASSIFICATION_TYPE = U
NORAD_CAT_ID   = 57800
ELEMENT_SET_NO = 999
REV_AT_EPOCH   = 11840
BSTAR          = .40506453E-3
MEAN_MOTION_DOT = .6788E-4
MEAN_MOTION_DDOT = 0

CCSDS_OMM_VERS = 2.0
CREATION_DATE  = 
ORIGINATOR     = 

OBJECT_NAME    = ACS3
OBJECT_ID      = 2024-077B
CENTER_NAME    = EARTH
REF_FRAME      = TEME
TIME_SYSTEM    = UTC
MEAN_ELEMENT_THEORY = SGP/SGP4

EPOCH          = 2025-11-01T14:56:36.331872
MEAN_MOTION    = 13.83025566
ECCENTRICITY   = .00362426
INCLINATION    = 97.3364
RA_OF_ASC_NODE = 270.3339
ARG_OF_PERICENTER = 31.1487
MEAN_ANOMALY   = 329.1811

EPHEMERIS_TYPE = 0
CLASSIFICATION_TYPE = U
NORAD_CAT_ID   = 59588
ELEMENT_SET_NO = 999
REV_AT_EPOCH   = 7645
BSTAR          = .55626351E-1
MEAN_MOTION_DOT = .61553E-3
MEAN_MOTION_DDOT = 0

