COSMOS 2550             
1 48865U 21056A   25306.55818887  .00006628  00000+0  20706-3 0  9990
2 48865  67.1430  65.5292 0008332 270.3148  89.7051 15.33838831243961
CZ-2C R/B               
1 52794U 22058K   25305.14614445  .00031431  00000+0  61713-3 0  9990
2 52794  50.1911 255.2081 0050341  25.0159 335.3231 15.45609322190191
GSLV R/B                
1 54149U 22138AN  25306.45335066  .00003073  00000+0  27221-3 0  9996
2 54149  87.3857 208.9543 0019010 252.5284 107.3870 14.95793014164902
XRISM                   
1 57800U 23137A   25305.58706887  .00006788  00000+0  40506-3 0  9996
2 57800  31.0026  31.1182 0008251 189.8661 170.1815 15.09693165118407
ACS3                    
1 59588U 24077B   25305.62264273  .00061553  00000+0  55626-1 0  9996
2 59588  97.3364 270.3339 0036242  31.1487 329.1811 13.83025566 76453
